{
  "type": "FeatureCollection",
  "features": [
    {
      "type": "Feature",
      "properties": {
        "norad_id": 33913,
        "name": "COSMOS 2251 DEB",
        "group": "cosmos-2251-debris",
        "lat": 22.56253903655408,
        "lon": 6.260414061243837,
        "alt_km": 756.1980698913676,
        "timestamp": "2025-12-07T16:44:04.305726+00:00",
        "meta_object_name": "COSMOS 2251 DEB",
        "meta_object_id": "1993-036DS",
        "meta_epoch": "2025-12-06T17:07:35.156640",
        "meta_mean_motion": 14.48451665,
        "meta_eccentricity": 0.00481422,
        "meta_inclination": 74.0335,
        "meta_ra_of_asc_node": 194.9344,
        "meta_arg_of_pericenter": 298.615,
        "meta_mean_anomaly": 130.9109,
        "meta_ephemeris_type": 0,
        "meta_classification_type": "U",
        "meta_norad_cat_id": 33913,
        "meta_element_set_no": 999,
        "meta_rev_at_epoch": 88370,
        "meta_bstar": 0.00094614351,
        "meta_mean_motion_dot": 3.573e-05,
        "meta_mean_motion_ddot": 0,
        "tle_line1": "1 33913U 93036DS  25340.71360135  .00003573  00000+0  94614-3 0  9994",
        "tle_line2": "2 33913  74.0335 194.9344 0048142 298.6150 130.9109 14.48451665883700"
      },
      "geometry": {
        "type": "Point",
        "coordinates": [
          6.260414061243837,
          22.56253903655408
        ]
      }
    },
    {
      "type": "Feature",
      "properties": {
        "norad_id": 33914,
        "name": "COSMOS 2251 DEB",
        "group": "cosmos-2251-debris",
        "lat": 62.579140129015265,
        "lon": 56.751684342892474,
        "alt_km": 870.7085095217799,
        "timestamp": "2025-12-07T16:44:04.305737+00:00",
        "meta_object_name": "COSMOS 2251 DEB",
        "meta_object_id": "1993-036DT",
        "meta_epoch": "2025-12-06T21:59:50.485056",
        "meta_mean_motion": 13.71977214,
        "meta_eccentricity": 0.0301666,
        "meta_inclination": 74.0915,
        "meta_ra_of_asc_node": 24.6913,
        "meta_arg_of_pericenter": 129.1373,
        "meta_mean_anomaly": 46.6643,
        "meta_ephemeris_type": 0,
        "meta_classification_type": "U",
        "meta_norad_cat_id": 33914,
        "meta_element_set_no": 999,
        "meta_rev_at_epoch": 84001,
        "meta_bstar": 0.0008511797,
        "meta_mean_motion_dot": 1.049e-05,
        "meta_mean_motion_ddot": 0,
        "tle_line1": "1 33914U 93036DT  25340.91655654  .00001049  00000+0  85118-3 0  9995",
        "tle_line2": "2 33914  74.0915  24.6913 0301666 129.1373  46.6643 13.71977214840015"
      },
      "geometry": {
        "type": "Point",
        "coordinates": [
          56.751684342892474,
          62.579140129015265
        ]
      }
    },
    {
      "type": "Feature",
      "properties": {
        "norad_id": 33915,
        "name": "COSMOS 2251 DEB",
        "group": "cosmos-2251-debris",
        "lat": 49.79502755435951,
        "lon": -156.4350730477771,
        "alt_km": 696.1007723232515,
        "timestamp": "2025-12-07T16:44:04.305747+00:00",
        "meta_object_name": "COSMOS 2251 DEB",
        "meta_object_id": "1993-036DU",
        "meta_epoch": "2025-12-06T15:36:27.457056",
        "meta_mean_motion": 14.35061142,
        "meta_eccentricity": 0.01047608,
        "meta_inclination": 74.0446,
        "meta_ra_of_asc_node": 45.2669,
        "meta_arg_of_pericenter": 139.4209,
        "meta_mean_anomaly": 341.4914,
        "meta_ephemeris_type": 0,
        "meta_classification_type": "U",
        "meta_norad_cat_id": 33915,
        "meta_element_set_no": 999,
        "meta_rev_at_epoch": 87670,
        "meta_bstar": 0.00084718101,
        "meta_mean_motion_dot": 2.545e-05,
        "meta_mean_motion_ddot": 0,
        "tle_line1": "1 33915U 93036DU  25340.65031779  .00002545  00000+0  84718-3 0  9990",
        "tle_line2": "2 33915  74.0446  45.2669 0104760 139.4209 341.4914 14.35061142876707"
      },
      "geometry": {
        "type": "Point",
        "coordinates": [
          -156.4350730477771,
          49.79502755435951
        ]
      }
    },
    {
      "type": "Feature",
      "properties": {
        "norad_id": 33916,
        "name": "COSMOS 2251 DEB",
        "group": "cosmos-2251-debris",
        "lat": 35.88127410038141,
        "lon": 60.81085722258838,
        "alt_km": 1241.2475809893458,
        "timestamp": "2025-12-07T16:44:04.305758+00:00",
        "meta_object_name": "COSMOS 2251 DEB",
        "meta_object_id": "1993-036DV",
        "meta_epoch": "2025-12-06T22:07:20.635968",
        "meta_mean_motion": 13.68603153,
        "meta_eccentricity": 0.03254603,
        "meta_inclination": 74.053,
        "meta_ra_of_asc_node": 50.1479,
        "meta_arg_of_pericenter": 223.5249,
        "meta_mean_anomaly": 314.3723,
        "meta_ephemeris_type": 0,
        "meta_classification_type": "U",
        "meta_norad_cat_id": 33916,
        "meta_element_set_no": 999,
        "meta_rev_at_epoch": 83811,
        "meta_bstar": 0.00087472513,
        "meta_mean_motion_dot": 1.063e-05,
        "meta_mean_motion_ddot": 0,
        "tle_line1": "1 33916U 93036DV  25340.92176662  .00001063  00000+0  87473-3 0  9997",
        "tle_line2": "2 33916  74.0530  50.1479 0325460 223.5249 314.3723 13.68603153838116"
      },
      "geometry": {
        "type": "Point",
        "coordinates": [
          60.81085722258838,
          35.88127410038141
        ]
      }
    },
    {
      "type": "Feature",
      "properties": {
        "norad_id": 33917,
        "name": "COSMOS 2251 DEB",
        "group": "cosmos-2251-debris",
        "lat": 72.59345622116774,
        "lon": -114.67539924992907,
        "alt_km": 1165.0227958555452,
        "timestamp": "2025-12-07T16:44:04.305768+00:00",
        "meta_object_name": "COSMOS 2251 DEB",
        "meta_object_id": "1993-036DW",
        "meta_epoch": "2025-12-06T17:26:24.636192",
        "meta_mean_motion": 13.69344146,
        "meta_eccentricity": 0.03311498,
        "meta_inclination": 74.1065,
        "meta_ra_of_asc_node": 132.2526,
        "meta_arg_of_pericenter": 234.5293,
        "meta_mean_anomaly": 122.4508,
        "meta_ephemeris_type": 0,
        "meta_classification_type": "U",
        "meta_norad_cat_id": 33917,
        "meta_element_set_no": 999,
        "meta_rev_at_epoch": 83651,
        "meta_bstar": 0.00110582,
        "meta_mean_motion_dot": 1.388e-05,
        "meta_mean_motion_ddot": 0,
        "tle_line1": "1 33917U 93036DW  25340.72667403  .00001388  00000+0  11058-2 0  9999",
        "tle_line2": "2 33917  74.1065 132.2526 0331149 234.5293 122.4508 13.69344146836514"
      },
      "geometry": {
        "type": "Point",
        "coordinates": [
          -114.67539924992907,
          72.59345622116774
        ]
      }
    },
    {
      "type": "Feature",
      "properties": {
        "norad_id": 33920,
        "name": "COSMOS 2251 DEB",
        "group": "cosmos-2251-debris",
        "lat": 10.143510009207436,
        "lon": -49.060539697083485,
        "alt_km": 684.7332816943454,
        "timestamp": "2025-12-07T16:44:04.305778+00:00",
        "meta_object_name": "COSMOS 2251 DEB",
        "meta_object_id": "1993-036DZ",
        "meta_epoch": "2025-12-05T23:31:13.622592",
        "meta_mean_motion": 14.58081418,
        "meta_eccentricity": 0.00386381,
        "meta_inclination": 74.0606,
        "meta_ra_of_asc_node": 311.2693,
        "meta_arg_of_pericenter": 319.2446,
        "meta_mean_anomaly": 40.5829,
        "meta_ephemeris_type": 0,
        "meta_classification_type": "U",
        "meta_norad_cat_id": 33920,
        "meta_element_set_no": 999,
        "meta_rev_at_epoch": 88016,
        "meta_bstar": 0.0032522001,
        "meta_mean_motion_dot": 0.00015127,
        "meta_mean_motion_ddot": 0,
        "tle_line1": "1 33920U 93036DZ  25339.98001878  .00015127  00000+0  32522-2 0  9992",
        "tle_line2": "2 33920  74.0606 311.2693 0038638 319.2446  40.5829 14.58081418880165"
      },
      "geometry": {
        "type": "Point",
        "coordinates": [
          -49.060539697083485,
          10.143510009207436
        ]
      }
    },
    {
      "type": "Feature",
      "properties": {
        "norad_id": 33922,
        "name": "COSMOS 2251 DEB",
        "group": "cosmos-2251-debris",
        "lat": -47.15616184143686,
        "lon": 139.25257374145573,
        "alt_km": 721.4905966841161,
        "timestamp": "2025-12-07T16:44:04.305788+00:00",
        "meta_object_name": "COSMOS 2251 DEB",
        "meta_object_id": "1993-036EB",
        "meta_epoch": "2025-12-06T21:36:24.425280",
        "meta_mean_motion": 14.49475757,
        "meta_eccentricity": 0.00232907,
        "meta_inclination": 74.0462,
        "meta_ra_of_asc_node": 158.7118,
        "meta_arg_of_pericenter": 270.026,
        "meta_mean_anomaly": 203.0883,
        "meta_ephemeris_type": 0,
        "meta_classification_type": "U",
        "meta_norad_cat_id": 33922,
        "meta_element_set_no": 999,
        "meta_rev_at_epoch": 88493,
        "meta_bstar": 0.00077395399,
        "meta_mean_motion_dot": 2.948e-05,
        "meta_mean_motion_ddot": 0,
        "tle_line1": "1 33922U 93036EB  25340.90028270  .00002948  00000+0  77395-3 0  9998",
        "tle_line2": "2 33922  74.0462 158.7118 0023290 270.0260 203.0883 14.49475757884937"
      },
      "geometry": {
        "type": "Point",
        "coordinates": [
          139.25257374145573,
          -47.15616184143686
        ]
      }
    }
  ]
}